NORAD_CAT_ID,OBJECT_NAME,OBJECT_TYPE,EPOCH,MEAN_MOTION,ECCENTRICITY,INCLINATION,RA_OF_ASC_NODE,ARG_OF_PERICENTER,MEAN_ANOMALY,BSTAR,MEAN_MOTION_DOT,MEAN_MOTION_DDOT,TLE_LINE0,TLE_LINE1,TLE_LINE2,SEMIMAJOR_AXIS,PERIOD,APOGEE,PERIGEE,DECAYED
52338.0,STARLINK-3815,PAYLOAD,2023-06-15 09:13:11,15.17123636,3.89e-05,53.2199,4.4578,304.5165,55.5794,-0.00036346,-7.599e-05,0.0,0 STARLINK-3815,1 52338U 22045H   23166.38416513 -.00007599  00000-0 -36346-3 0  9990,2 52338  53.2199   4.4578 0000389 304.5165  55.5794 15.17123636 65027,6892.676,94.916,514.809,514.273,0.0
52338.0,STARLINK-3815,PAYLOAD,2023-06-15 17:07:33,15.17105596,0.0001213,53.2176,2.9514,165.0589,195.0443,-0.00064624,-0.00013252,0.0,0 STARLINK-3815,1 52338U 22045H   23166.71357937 -.00013252  00000-0 -64624-3 0  9994,2 52338  53.2176   2.9514 0001213 165.0589 195.0443 15.17105596 65073,6892.731,94.918,515.432,513.759,0.0
52338.0,STARLINK-3815,PAYLOAD,2023-06-15 21:52:10,15.17082992,3.16e-05,53.2194,2.0586,302.3973,57.6992,-0.00058792,-0.00012077,0.0,0 STARLINK-3815,1 52338U 22045H   23166.91122991 -.00012077  00000-0 -58792-3 0  9999,2 52338  53.2194   2.0586 0000316 302.3973  57.6992 15.17082992 65109,6892.799,94.919,514.882,514.446,0.0
52338.0,STARLINK-3815,PAYLOAD,2023-06-16 08:56:16,15.17051029,4.08e-05,53.2207,359.9642,304.5758,55.5199,-0.00054537,-0.00011217,0.0,0 STARLINK-3815,1 52338U 22045H   23167.37240921 -.00011217  00000-0 -54537-3 0  9992,2 52338  53.2207 359.9642 0000408 304.5758  55.5199 15.17051029 65178,6892.896,94.921,515.042,514.48,0.0
52338.0,STARLINK-3815,PAYLOAD,2023-06-16 20:00:22,15.1702295,1.63e-05,53.2194,357.8651,5.9582,354.1416,-0.00055468,-0.00011394,0.0,0 STARLINK-3815,1 52338U 22045H   23167.83359854 -.00011394  00000-0 -55468-3 0  9999,2 52338  53.2194 357.8651 0000163   5.9582 354.1416 15.17022950 65244,6892.981,94.923,514.958,514.734,0.0
52338.0,STARLINK-3815,PAYLOAD,2023-06-16 21:35:15,15.17017233,2.48e-05,53.2193,357.5663,12.9821,347.1181,-0.00054947,-0.00011288,0.0,0 STARLINK-3815,1 52338U 22045H   23167.89948491 -.00011288  00000-0 -54947-3 0  9999,2 52338  53.2193 357.5663 0000248  12.9821 347.1181 15.17017233 65251,6892.998,94.923,515.034,514.692,0.0
52338.0,STARLINK-3815,PAYLOAD,2023-06-17 05:29:38,15.16987741,4e-05,53.2192,356.0691,23.4367,336.6647,-0.00050604,-0.00010413,0.0,0 STARLINK-3815,1 52338U 22045H   23168.22891750 -.00010413  00000-0 -50604-3 0  9997,2 52338  53.2192 356.0691 0000400  23.4367 336.6647 15.16987741 65302,6893.088,94.925,515.228,514.677,0.0
52338.0,STARLINK-3815,PAYLOAD,2023-06-17 14:58:54,15.1695781,0.0001755,53.2168,354.2698,60.3327,299.7843,-0.00048577,-0.00010002,0.0,0 STARLINK-3815,1 52338U 22045H   23168.62424639 -.00010002  00000-0 -48577-3 0  9999,2 52338  53.2168 354.2698 0001755  60.3327 299.7843 15.16957810 65369,6893.178,94.927,516.253,513.833,0.0
52338.0,STARLINK-3815,PAYLOAD,2023-06-17 21:18:25,15.1693288,9.01e-05,53.2197,353.0723,61.3426,298.7661,-0.00039657,-8.218e-05,0.0,0 STARLINK-3815,1 52338U 22045H   23168.88779687 -.00008218  00000-0 -39657-3 0  9998,2 52338  53.2197 353.0723 0000901  61.3426 298.7661 15.16932880 65402,6893.254,94.928,515.74,514.498,0.0
52338.0,STARLINK-3815,PAYLOAD,2023-06-18 05:12:48,15.16927132,9.08e-05,53.2197,351.5758,58.6027,301.5058,-0.00037132,-7.714e-05,0.0,0 STARLINK-3815,1 52338U 22045H   23169.21723068 -.00007714  00000-0 -37132-3 0  9994,2 52338  53.2197 351.5758 0000908  58.6027 301.5058 15.16927132 65458,6893.271,94.929,515.762,514.51,0.0
52338.0,STARLINK-3815,PAYLOAD,2023-06-18 16:16:57,15.1691054,8.57e-05,53.2198,349.4799,60.6863,299.4219,-0.00031419,-6.573e-05,0.0,0 STARLINK-3815,1 52338U 22045H   23169.67844630 -.00006573  00000-0 -31419-3 0  9997,2 52338  53.2198 349.4799 0000857  60.6863 299.4219 15.16910540 65521,6893.321,94.93,515.777,514.596,0.0
52338.0,STARLINK-3815,PAYLOAD,2023-06-19 04:56:00,15.16881152,0.0001118,53.2195,347.085,72.9009,287.2109,-0.00022905,-4.874e-05,0.0,0 STARLINK-3815,1 52338U 22045H   23170.20556477 -.00004874  00000-0 -22905-3 0  9999,2 52338  53.2195 347.0850 0001118  72.9009 287.2109 15.16881152 65607,6893.41,94.932,516.046,514.505,0.0
52338.0,STARLINK-3815,PAYLOAD,2023-06-19 14:25:18,15.16866868,0.0001207,53.2197,345.285,63.4095,296.7024,-0.00023204,-4.931e-05,0.0,0 STARLINK-3815,1 52338U 22045H   23170.60090563 -.00004931  00000-0 -23204-3 0  9999,2 52338  53.2197 345.2850 0001207  63.4095 296.7024 15.16866868 65662,6893.454,94.933,516.151,514.487,0.0
52338.0,STARLINK-3815,PAYLOAD,2023-06-20 06:14:07,15.168487,9.49e-05,53.2186,342.2939,58.8509,301.258,-0.00022834,-4.855e-05,0.0,0 STARLINK-3815,1 52338U 22045H   23171.25981236 -.00004855  00000-0 -22834-3 0  9990,2 52338  53.2186 342.2939 0000949  58.8509 301.2580 15.16848700 65760,6893.509,94.934,516.028,514.72,0.0
52338.0,STARLINK-3815,PAYLOAD,2023-06-20 17:18:19,15.16831858,8.82e-05,53.2185,340.1973,57.1991,302.909,-0.00023952,-5.075e-05,0.0,0 STARLINK-3815,1 52338U 22045H   23171.72105602 -.00005075  00000-0 -23952-3 0  9994,2 52338  53.2185 340.1973 0000882  57.1991 302.9090 15.16831858 65835,6893.56,94.935,516.033,514.817,0.0
52338.0,STARLINK-3815,PAYLOAD,2023-06-20 20:28:05,15.1682511,8.92e-05,53.2184,339.5988,59.4105,300.6979,-0.0002252,-4.79e-05,0.0,0 STARLINK-3815,1 52338U 22045H   23171.85284124 -.00004790  00000-0 -22520-3 0  9998,2 52338  53.2184 339.5988 0000892  59.4105 300.6979 15.16825110 65852,6893.58,94.935,516.06,514.83,0.0
52338.0,STARLINK-3815,PAYLOAD,2023-06-21 10:42:03,15.16805767,8.69e-05,53.2183,336.9043,49.1414,310.9657,-0.00019947,-4.276e-05,0.0,0 STARLINK-3815,1 52338U 22045H   23172.44587417 -.00004276  00000-0 -19947-3 0  9993,2 52338  53.2183 336.9043 0000869  49.1414 310.9657 15.16805767 65940,6893.639,94.936,516.103,514.905,0.0
52338.0,STARLINK-3815,PAYLOAD,2023-06-21 18:36:29,15.16794207,8.18e-05,53.2188,335.4062,37.7496,322.3557,-0.00022673,-4.816e-05,0.0,0 STARLINK-3815,1 52338U 22045H   23172.77534339 -.00004816  00000-0 -22673-3 0  9994,2 52338  53.2188 335.4062 0000818  37.7496 322.3557 15.16794207 65994,6893.674,94.937,516.103,514.975,0.0
52338.0,STARLINK-3815,PAYLOAD,2023-06-22 04:05:49,15.16781555,8.3e-05,53.2179,333.6107,42.92,317.186,-0.00028548,-5.98e-05,0.0,0 STARLINK-3815,1 52338U 22045H   23173.17071106 -.00005980  00000-0 -28548-3 0  9997,2 52338  53.2179 333.6107 0000830  42.9200 317.1860 15.16781555 66058,6893.712,94.938,516.149,515.005,0.0
52338.0,STARLINK-3815,PAYLOAD,2023-06-22 18:19:49,15.16757442,9.62e-05,53.2183,330.9158,30.408,329.6971,-0.0002261,-4.799e-05,0.0,0 STARLINK-3815,1 52338U 22045H   23173.76376565 -.00004799  00000-0 -22610-3 0  9990,2 52338  53.2183 330.9158 0000962  30.4080 329.6971 15.16757442 66142,6893.785,94.939,516.313,514.987,0.0
52338.0,STARLINK-3815,PAYLOAD,2023-06-23 10:08:43,15.16733056,0.000119,53.2182,327.9228,18.2752,341.8286,-0.00014909,-3.269e-05,0.0,0 STARLINK-3815,1 52338U 22045H   23174.42272205 -.00003269  00000-0 -14909-3 0  9993,2 52338  53.2182 327.9228 0001190  18.2752 341.8286 15.16733056 66240,6893.859,94.941,516.545,514.904,0.0
52338.0,STARLINK-3815,PAYLOAD,2023-06-24 16:11:39,15.16703036,0.0001159,53.2178,322.2338,11.4189,348.6833,-0.00011358,-2.563e-05,0.0,0 STARLINK-3815,1 52338U 22045H   23175.67475992 -.00002563  00000-0 -11358-3 0  9990,2 52338  53.2178 322.2338 0001159  11.4189 348.6833 15.16703036 66438,6893.95,94.943,516.614,515.016,0.0
52338.0,STARLINK-3815,PAYLOAD,2023-06-25 03:15:54,15.16691203,0.0001162,53.2182,320.1375,13.2631,346.8395,-0.00016159,-3.513e-05,0.0,0 STARLINK-3815,1 52338U 22045H   23176.13604664 -.00003513  00000-0 -16159-3 0  9992,2 52338  53.2182 320.1375 0001162  13.2631 346.8395 15.16691203 66500,6893.986,94.944,516.652,515.05,0.0
52338.0,STARLINK-3815,PAYLOAD,2023-06-25 15:55:02,15.16680337,0.0001116,53.2184,317.7414,6.8274,353.2737,-9.5568e-05,-2.204e-05,0.0,0 STARLINK-3815,1 52338U 22045H   23176.66322783 -.00002204  00000-0 -95568-4 0  9997,2 52338  53.2184 317.7414 0001116   6.8274 353.2737 15.16680337 66584,6894.019,94.944,516.653,515.115,0.0
52338.0,STARLINK-3815,PAYLOAD,2023-06-26 02:59:18,15.16666031,0.000126,53.2184,315.6456,7.7229,352.3786,-8.9824e-05,-2.09e-05,0.0,0 STARLINK-3815,1 52338U 22045H   23177.12452080 -.00002090  00000-0 -89824-4 0  9994,2 52338  53.2184 315.6456 0001260   7.7229 352.3786 15.16666031 66654,6894.062,94.945,516.796,515.059,0.0
52338.0,STARLINK-3815,PAYLOAD,2023-06-26 15:38:28,15.16654349,0.0001231,53.2184,313.2507,7.5181,352.5833,-0.00013712,-3.025e-05,0.0,0 STARLINK-3815,1 52338U 22045H   23177.65171536 -.00003025  00000-0 -13712-3 0  9997,2 52338  53.2184 313.2507 0001231   7.5181 352.5833 15.16654349 66731,6894.098,94.946,516.811,515.114,0.0
52338.0,STARLINK-3815,PAYLOAD,2023-06-26 18:48:15,15.16646338,0.0001162,53.2192,312.6511,4.2992,355.8014,-0.00016627,-3.601e-05,0.0,0 STARLINK-3815,1 52338U 22045H   23177.78351838 -.00003601  00000-0 -16627-3 0  9994,2 52338  53.2192 312.6511 0001162   4.2992 355.8014 15.16646338 66753,6894.122,94.946,516.788,515.186,0.0
52338.0,STARLINK-3815,PAYLOAD,2023-06-27 09:02:20,15.1662708,0.000111,53.2193,309.9566,6.695,353.406,-0.00016849,-3.643e-05,0.0,0 STARLINK-3815,1 52338U 22045H   23178.37662256 -.00003643  00000-0 -16849-3 0  9991,2 52338  53.2193 309.9566 0001110   6.6950 353.4060 15.16627080 66844,6894.18,94.948,516.811,515.28,0.0
52338.0,STARLINK-3815,PAYLOAD,2023-06-27 15:21:55,15.16618023,0.0001098,53.2194,308.7588,6.2163,353.8846,-0.00021455,-4.552e-05,0.0,0 STARLINK-3815,1 52338U 22045H   23178.64022895 -.00004552  00000-0 -21455-3 0  9999,2 52338  53.2194 308.7588 0001098   6.2163 353.8846 15.16618023 66880,6894.208,94.948,516.83,515.316,0.0
52338.0,STARLINK-3815,PAYLOAD,2023-06-28 15:05:25,15.16579708,0.0001264,53.2186,304.2702,358.5797,1.5195,-0.0002542,-5.33e-05,0.0,0 STARLINK-3815,1 52338U 22045H   23179.62876858 -.00005330  00000-0 -25420-3 0  9995,2 52338  53.2186 304.2702 0001264 358.5797   1.5195 15.16579708 67039,6894.324,94.95,517.06,515.317,0.0
